[{"OBJECT_NAME":"GPS BIIR-2  (PRN 13)","OBJECT_ID":"1997-035A","EPOCH":"2026-03-04T23:57:48.634848","MEAN_MOTION":2.0056397,"ECCENTRICITY":0.00979606,"INCLINATION":55.9357,"RA_OF_ASC_NODE":102.6478,"ARG_OF_PERICENTER":56.262,"MEAN_ANOMALY":304.7451,"EPHEMERIS_TYPE":0,"CLASSIFICATION_TYPE":"U","NORAD_CAT_ID":24876,"ELEMENT_SET_NO":999,"REV_AT_EPOCH":20986,"BSTAR":0,"MEAN_MOTION_DOT":1.3e-7,"MEAN_MOTION_DDOT":0},{"OBJECT_NAME":"GPS BIIR-5  (PRN 22)","OBJECT_ID":"2000-040A","EPOCH":"2026-03-04T19:55:28.431552","MEAN_MOTION":2.00568933,"ECCENTRICITY":0.01226894,"INCLINATION":54.8755,"RA_OF_ASC_NODE":219.3047,"ARG_OF_PERICENTER":302.5325,"MEAN_ANOMALY":230.1354,"EPHEMERIS_TYPE":0,"CLASSIFICATION_TYPE":"U","NORAD_CAT_ID":26407,"ELEMENT_SET_NO":999,"REV_AT_EPOCH":18785,"BSTAR":0,"MEAN_MOTION_DOT":4.0e-8,"MEAN_MOTION_DDOT":0},{"OBJECT_NAME":"GPS BIIR-8  (PRN 16)","OBJECT_ID":"2003-005A","EPOCH":"2026-03-05T03:45:11.520576","MEAN_MOTION":2.00566245,"ECCENTRICITY":0.0148735,"INCLINATION":54.9072,"RA_OF_ASC_NODE":219.0997,"ARG_OF_PERICENTER":52.7224,"MEAN_ANOMALY":131.3819,"EPHEMERIS_TYPE":0,"CLASSIFICATION_TYPE":"U","NORAD_CAT_ID":27663,"ELEMENT_SET_NO":999,"REV_AT_EPOCH":16922,"BSTAR":0,"MEAN_MOTION_DOT":7.0e-8,"MEAN_MOTION_DDOT":0},{"OBJECT_NAME":"GPS BIIR-11 (PRN 19)","OBJECT_ID":"2004-009A","EPOCH":"2026-03-04T10:16:30.113184","MEAN_MOTION":2.00558098,"ECCENTRICITY":0.01109612,"INCLINATION":54.9157,"RA_OF_ASC_NODE":279.9188,"ARG_OF_PERICENTER":169.067,"MEAN_ANOMALY":5.0968,"EPHEMERIS_TYPE":0,"CLASSIFICATION_TYPE":"U","NORAD_CAT_ID":28190,"ELEMENT_SET_NO":999,"REV_AT_EPOCH":16084,"BSTAR":0,"MEAN_MOTION_DOT":-2.0e-7,"MEAN_MOTION_DDOT":0},{"OBJECT_NAME":"GPS BIIR-13 (PRN 02)","OBJECT_ID":"2004-045A","EPOCH":"2026-03-05T03:30:46.121760","MEAN_MOTION":2.0057346,"ECCENTRICITY":0.01708402,"INCLINATION":55.1943,"RA_OF_ASC_NODE":329.0893,"ARG_OF_PERICENTER":312.8581,"MEAN_ANOMALY":83.3458,"EPHEMERIS_TYPE":0,"CLASSIFICATION_TYPE":"U","NORAD_CAT_ID":28474,"ELEMENT_SET_NO":999,"REV_AT_EPOCH":15634,"BSTAR":0,"MEAN_MOTION_DOT":-9.4e-7,"MEAN_MOTION_DDOT":0},{"OBJECT_NAME":"GPS BIIRM-1 (PRN 17)","OBJECT_ID":"2005-038A","EPOCH":"2026-03-04T15:53:49.820352","MEAN_MOTION":2.00572995,"ECCENTRICITY":0.0128798,"INCLINATION":54.9628,"RA_OF_ASC_NODE":277.3946,"ARG_OF_PERICENTER":295.3469,"MEAN_ANOMALY":71.7592,"EPHEMERIS_TYPE":0,"CLASSIFICATION_TYPE":"U","NORAD_CAT_ID":28874,"ELEMENT_SET_NO":999,"REV_AT_EPOCH":14974,"BSTAR":0,"MEAN_MOTION_DOT":-1.8e-7,"MEAN_MOTION_DDOT":0},{"OBJECT_NAME":"GPS BIIRM-2 (PRN 31)","OBJECT_ID":"2006-042A","EPOCH":"2026-03-05T07:26:29.074272","MEAN_MOTION":2.00575327,"ECCENTRICITY":0.01067128,"INCLINATION":54.6981,"RA_OF_ASC_NODE":155.4642,"ARG_OF_PERICENTER":52.8923,"MEAN_ANOMALY":318.897,"EPHEMERIS_TYPE":0,"CLASSIFICATION_TYPE":"U","NORAD_CAT_ID":29486,"ELEMENT_SET_NO":999,"REV_AT_EPOCH":14231,"BSTAR":0,"MEAN_MOTION_DOT":9.0e-8,"MEAN_MOTION_DDOT":0},{"OBJECT_NAME":"GPS BIIRM-3 (PRN 12)","OBJECT_ID":"2006-052A","EPOCH":"2026-03-04T17:05:51.360864","MEAN_MOTION":2.00551664,"ECCENTRICITY":0.00878639,"INCLINATION":54.9572,"RA_OF_ASC_NODE":218.1449,"ARG_OF_PERICENTER":89.3643,"MEAN_ANOMALY":271.5921,"EPHEMERIS_TYPE":0,"CLASSIFICATION_TYPE":"U","NORAD_CAT_ID":29601,"ELEMENT_SET_NO":999,"REV_AT_EPOCH":14131,"BSTAR":0,"MEAN_MOTION_DOT":2.0e-8,"MEAN_MOTION_DDOT":0},{"OBJECT_NAME":"GPS BIIRM-4 (PRN 15)","OBJECT_ID":"2007-047A","EPOCH":"2026-03-05T00:27:38.494656","MEAN_MOTION":2.00560713,"ECCENTRICITY":0.01636084,"INCLINATION":54.0162,"RA_OF_ASC_NODE":84.358,"ARG_OF_PERICENTER":85.964,"MEAN_ANOMALY":275.961,"EPHEMERIS_TYPE":0,"CLASSIFICATION_TYPE":"U","NORAD_CAT_ID":32260,"ELEMENT_SET_NO":999,"REV_AT_EPOCH":13472,"BSTAR":0,"MEAN_MOTION_DOT":-8.0e-8,"MEAN_MOTION_DDOT":0},{"OBJECT_NAME":"GPS BIIRM-5 (PRN 29)","OBJECT_ID":"2007-062A","EPOCH":"2026-03-05T01:58:32.191392","MEAN_MOTION":2.00553591,"ECCENTRICITY":0.00329456,"INCLINATION":55.1143,"RA_OF_ASC_NODE":278.3362,"ARG_OF_PERICENTER":160.6669,"MEAN_ANOMALY":12.9552,"EPHEMERIS_TYPE":0,"CLASSIFICATION_TYPE":"U","NORAD_CAT_ID":32384,"ELEMENT_SET_NO":999,"REV_AT_EPOCH":13342,"BSTAR":0,"MEAN_MOTION_DOT":-2.0e-7,"MEAN_MOTION_DDOT":0},{"OBJECT_NAME":"GPS BIIRM-6 (PRN 07)","OBJECT_ID":"2008-012A","EPOCH":"2026-03-04T10:31:59.001312","MEAN_MOTION":2.00569187,"ECCENTRICITY":0.02069793,"INCLINATION":54.4824,"RA_OF_ASC_NODE":154.1108,"ARG_OF_PERICENTER":246.1865,"MEAN_ANOMALY":111.6633,"EPHEMERIS_TYPE":0,"CLASSIFICATION_TYPE":"U","NORAD_CAT_ID":32711,"ELEMENT_SET_NO":999,"REV_AT_EPOCH":13165,"BSTAR":0,"MEAN_MOTION_DOT":6.0e-8,"MEAN_MOTION_DDOT":0},{"OBJECT_NAME":"GPS BIIRM-8 (PRN 05)","OBJECT_ID":"2009-043A","EPOCH":"2026-03-04T22:17:35.308032","MEAN_MOTION":2.00560419,"ECCENTRICITY":0.00517137,"INCLINATION":56.1486,"RA_OF_ASC_NODE":31.547,"ARG_OF_PERICENTER":80.7039,"MEAN_ANOMALY":289.0108,"EPHEMERIS_TYPE":0,"CLASSIFICATION_TYPE":"U","NORAD_CAT_ID":35752,"ELEMENT_SET_NO":999,"REV_AT_EPOCH":12127,"BSTAR":0,"MEAN_MOTION_DOT":-8.5e-7,"MEAN_MOTION_DDOT":0},{"OBJECT_NAME":"GPS BIIF-1  (PRN 25)","OBJECT_ID":"2010-022A","EPOCH":"2026-03-04T19:51:45.362304","MEAN_MOTION":2.00557291,"ECCENTRICITY":0.01273477,"INCLINATION":54.2888,"RA_OF_ASC_NODE":212.764,"ARG_OF_PERICENTER":65.8806,"MEAN_ANOMALY":347.4855,"EPHEMERIS_TYPE":0,"CLASSIFICATION_TYPE":"U","NORAD_CAT_ID":36585,"ELEMENT_SET_NO":999,"REV_AT_EPOCH":11550,"BSTAR":0,"MEAN_MOTION_DOT":2.0e-8,"MEAN_MOTION_DDOT":0},{"OBJECT_NAME":"GPS BIIF-3  (PRN 24)","OBJECT_ID":"2012-053A","EPOCH":"2026-03-04T02:50:27.721824","MEAN_MOTION":2.00565801,"ECCENTRICITY":0.01769354,"INCLINATION":53.5658,"RA_OF_ASC_NODE":147.9052,"ARG_OF_PERICENTER":64.7808,"MEAN_ANOMALY":297.0848,"EPHEMERIS_TYPE":0,"CLASSIFICATION_TYPE":"U","NORAD_CAT_ID":38833,"ELEMENT_SET_NO":999,"REV_AT_EPOCH":9733,"BSTAR":0,"MEAN_MOTION_DOT":6.0e-8,"MEAN_MOTION_DDOT":0},{"OBJECT_NAME":"GPS BIIF-4  (PRN 27)","OBJECT_ID":"2013-023A","EPOCH":"2026-03-04T23:31:44.502816","MEAN_MOTION":2.00564217,"ECCENTRICITY":0.01416203,"INCLINATION":54.5857,"RA_OF_ASC_NODE":273.2171,"ARG_OF_PERICENTER":49.9246,"MEAN_ANOMALY":311.3385,"EPHEMERIS_TYPE":0,"CLASSIFICATION_TYPE":"U","NORAD_CAT_ID":39166,"ELEMENT_SET_NO":999,"REV_AT_EPOCH":9379,"BSTAR":0,"MEAN_MOTION_DOT":-1.6e-7,"MEAN_MOTION_DDOT":0},{"OBJECT_NAME":"GPS BIIF-5  (PRN 30)","OBJECT_ID":"2014-008A","EPOCH":"2026-03-03T23:33:39.000096","MEAN_MOTION":2.00553063,"ECCENTRICITY":0.00822912,"INCLINATION":53.6377,"RA_OF_ASC_NODE":153.6123,"ARG_OF_PERICENTER":228.282,"MEAN_ANOMALY":131.0416,"EPHEMERIS_TYPE":0,"CLASSIFICATION_TYPE":"U","NORAD_CAT_ID":39533,"ELEMENT_SET_NO":999,"REV_AT_EPOCH":8757,"BSTAR":0,"MEAN_MOTION_DOT":2.0e-8,"MEAN_MOTION_DDOT":0},{"OBJECT_NAME":"GPS BIIF-6  (PRN 06)","OBJECT_ID":"2014-026A","EPOCH":"2026-03-04T18:12:06.108192","MEAN_MOTION":2.00568672,"ECCENTRICITY":0.00398648,"INCLINATION":56.5463,"RA_OF_ASC_NODE":335.5859,"ARG_OF_PERICENTER":324.5417,"MEAN_ANOMALY":35.2288,"EPHEMERIS_TYPE":0,"CLASSIFICATION_TYPE":"U","NORAD_CAT_ID":39741,"ELEMENT_SET_NO":999,"REV_AT_EPOCH":8644,"BSTAR":0,"MEAN_MOTION_DOT":-9.8e-7,"MEAN_MOTION_DDOT":0}]
